{"type": "FeatureCollection", "features": [ {"type": "Feature", "properties": {"norad_id": 33492, "name": "GOSAT (IBUKI)", "group": "resource", "lat": 81.85373933390201, "lon": -2.8359319462970594, "alt_km": 660.7603639105782, "timestamp": "2025-12-11T18:59:45.722970+00:00", "meta": {"OBJECT_NAME": "GOSAT (IBUKI)", "OBJECT_ID": "2009-002A", "EPOCH": "2025-12-11T07:07:42.238560", "MEAN_MOTION": 14.67551336, "ECCENTRICITY": 9.462e-05, "INCLINATION": 98.0768, "RA_OF_ASC_NODE": 93.9203, "ARG_OF_PERICENTER": 90.3485, "MEAN_ANOMALY": 269.7828, "EPHEMERIS_TYPE": 0, "CLASSIFICATION_TYPE": "U", "NORAD_CAT_ID": 33492, "ELEMENT_SET_NO": 999, "REV_AT_EPOCH": 90390, "BSTAR": 0.00028025469, "MEAN_MOTION_DOT": 1.542e-05, "MEAN_MOTION_DDOT": 0}, "tle": {"line1": "1 33492U 09002A   25345.29701665  .00001542  00000+0  28025-3 0  9998", "line2": "2 33492  98.0768  93.9203 0000946  90.3485 269.7828 14.67551336903909"}}, "geometry": {"type": "Point", "coordinates": [-2.8359319462970594, 81.85373933390201]}}, {"type": "Feature", "properties": {"norad_id": 35681, "name": "DEIMOS-1", "group": "resource", "lat": 35.897545087194075, "lon": -27.930306391461137, "alt_km": 642.0049689490879, "timestamp": "2025-12-11T18:59:45.722982+00:00", "meta": {"OBJECT_NAME": "DEIMOS-1", "OBJECT_ID": "2009-041A", "EPOCH": "2025-12-11T06:57:00.348768", "MEAN_MOTION": 14.74949272, "ECCENTRICITY": 0.00027688, "INCLINATION": 97.7151, "RA_OF_ASC_NODE": 145.9602, "ARG_OF_PERICENTER": 81.5121, "MEAN_ANOMALY": 278.6403, "EPHEMERIS_TYPE": 0, "CLASSIFICATION_TYPE": "U", "NORAD_CAT_ID": 35681, "ELEMENT_SET_NO": 999, "REV_AT_EPOCH": 87918, "BSTAR": 0.00019503998, "MEAN_MOTION_DOT": 1.263e-05, "MEAN_MOTION_DDOT": 0}, "tle": {"line1": "1 35681U 09041A   25345.28958737  .00001263  00000+0  19504-3 0  9998", "line2": "2 35681  97.7151 145.9602 0002768  81.5121 278.6403 14.74949272879185"}}, "geometry": {"type": "Point", "coordinates": [-27.930306391461137, 35.897545087194075]}}, {"type": "Feature", "properties": {"norad_id": 35682, "name": "DUBAISAT-1", "group": "resource", "lat": 77.00819933789037, "lon": 79.04640508752885, "alt_km": 642.7266994455349, "timestamp": "2025-12-11T18:59:45.722994+00:00", "meta": {"OBJECT_NAME": "DUBAISAT-1", "OBJECT_ID": "2009-041B", "EPOCH": "2025-12-11T07:14:10.175424", "MEAN_MOTION": 14.74598828, "ECCENTRICITY": 0.00096506, "INCLINATION": 97.9787, "RA_OF_ASC_NODE": 116.0024, "ARG_OF_PERICENTER": 319.5955, "MEAN_ANOMALY": 40.4536, "EPHEMERIS_TYPE": 0, "CLASSIFICATION_TYPE": "U", "NORAD_CAT_ID": 35682, "ELEMENT_SET_NO": 999, "REV_AT_EPOCH": 87740, "BSTAR": 0.00038016127, "MEAN_MOTION_DOT": 2.485e-05, "MEAN_MOTION_DDOT": 0}, "tle": {"line1": "1 35682U 09041B   25345.30150666  .00002485  00000+0  38016-3 0  9993", "line2": "2 35682  97.9787 116.0024 0009650 319.5955  40.4536 14.74598828877408"}}, "geometry": {"type": "Point", "coordinates": [79.04640508752885, 77.00819933789037]}}, {"type": "Feature", "properties": {"norad_id": 35931, "name": "OCEANSAT-2", "group": "resource", "lat": 26.64363784069835, "lon": 170.64844665240977, "alt_km": 897.1778248199616, "timestamp": "2025-12-11T18:59:45.723006+00:00", "meta": {"OBJECT_NAME": "OCEANSAT-2", "OBJECT_ID": "2009-051A", "EPOCH": "2025-12-11T07:58:29.650368", "MEAN_MOTION": 13.99625488, "ECCENTRICITY": 0.00162631, "INCLINATION": 98.2224, "RA_OF_ASC_NODE": 346.0757, "ARG_OF_PERICENTER": 48.7406, "MEAN_ANOMALY": 311.5159, "EPHEMERIS_TYPE": 0, "CLASSIFICATION_TYPE": "U", "NORAD_CAT_ID": 35931, "ELEMENT_SET_NO": 999, "REV_AT_EPOCH": 85305, "BSTAR": -2.4034576e-05, "MEAN_MOTION_DOT": -7.3e-07, "MEAN_MOTION_DDOT": 0}, "tle": {"line1": "1 35931U 09051A   25345.33228762 -.00000073  00000+0 -24035-4 0  9997", "line2": "2 35931  98.2224 346.0757 0016263  48.7406 311.5159 13.99625488853050"}}, "geometry": {"type": "Point", "coordinates": [170.64844665240977, 26.64363784069835]}}, {"type": "Feature", "properties": {"norad_id": 35946, "name": "WORLDVIEW-2 (WV-2)", "group": "resource", "lat": 35.24389426492624, "lon": -117.06322264706358, "alt_km": 762.9065295097616, "timestamp": "2025-12-11T18:59:45.723018+00:00", "meta": {"OBJECT_NAME": "WORLDVIEW-2 (WV-2)", "OBJECT_ID": "2009-055A", "EPOCH": "2025-12-11T04:57:54.584064", "MEAN_MOTION": 14.37651686, "ECCENTRICITY": 0.00053173, "INCLINATION": 98.4762, "RA_OF_ASC_NODE": 56.3122, "ARG_OF_PERICENTER": 70.637, "MEAN_ANOMALY": 289.5392, "EPHEMERIS_TYPE": 0, "CLASSIFICATION_TYPE": "U", "NORAD_CAT_ID": 35946, "ELEMENT_SET_NO": 999, "REV_AT_EPOCH": 84863, "BSTAR": 0.00010770429, "MEAN_MOTION_DOT": 2.8e-06, "MEAN_MOTION_DDOT": 0}, "tle": {"line1": "1 35946U 09055A   25345.20688176  .00000280  00000+0  10770-3 0  9990", "line2": "2 35946  98.4762  56.3122 0005317  70.6370 289.5392 14.37651686848637"}}, "geometry": {"type": "Point", "coordinates": [-117.06322264706358, 35.24389426492624]}}, {"type": "Feature", "properties": {"norad_id": 36036, "name": "SMOS", "group": "resource", "lat": 7.066817439118982, "lon": -8.09191254566339, "alt_km": 761.3295543945369, "timestamp": "2025-12-11T18:59:45.723029+00:00", "meta": {"OBJECT_NAME": "SMOS", "OBJECT_ID": "2009-059A", "EPOCH": "2025-12-11T06:31:15.053664", "MEAN_MOTION": 14.39739575, "ECCENTRICITY": 0.00010984, "INCLINATION": 98.438, "RA_OF_ASC_NODE": 170.3418, "ARG_OF_PERICENTER": 85.03, "MEAN_ANOMALY": 275.1013, "EPHEMERIS_TYPE": 0, "CLASSIFICATION_TYPE": "U", "NORAD_CAT_ID": 36036, "ELEMENT_SET_NO": 999, "REV_AT_EPOCH": 84641, "BSTAR": 0.0002235022, "MEAN_MOTION_DOT": 6.57e-06, "MEAN_MOTION_DDOT": 0}, "tle": {"line1": "1 36036U 09059A   25345.27170201  .00000657  00000+0  22350-3 0  9992", "line2": "2 36036  98.4380 170.3418 0001098  85.0300 275.1013 14.39739575846415"}}, "geometry": {"type": "Point", "coordinates": [-8.09191254566339, 7.066817439118982]}}, {"type": "Feature", "properties": {"norad_id": 36110, "name": "YAOGAN-7", "group": "resource", "lat": -47.440819149083225, "lon": 38.70776878079555, "alt_km": 634.2672134007598, "timestamp": "2025-12-11T18:59:45.723040+00:00", "meta": {"OBJECT_NAME": "YAOGAN-7", "OBJECT_ID": "2009-069A", "EPOCH": "2025-12-11T06:35:22.605216", "MEAN_MOTION": 14.77729637, "ECCENTRICITY": 0.00234042, "INCLINATION": 98.0302, "RA_OF_ASC_NODE": 227.0368, "ARG_OF_PERICENTER": 286.2851, "MEAN_ANOMALY": 73.5785, "EPHEMERIS_TYPE": 0, "CLASSIFICATION_TYPE": "U", "NORAD_CAT_ID": 36110, "ELEMENT_SET_NO": 999, "REV_AT_EPOCH": 86187, "BSTAR": 0.00016881762, "MEAN_MOTION_DOT": 1.162e-05, "MEAN_MOTION_DDOT": 0}, "tle": {"line1": "1 36110U 09069A   25345.27456719  .00001162  00000+0  16882-3 0  9992", "line2": "2 36110  98.0302 227.0368 0023404 286.2851  73.5785 14.77729637861876"}}, "geometry": {"type": "Point", "coordinates": [38.70776878079555, -47.440819149083225]}}, {"type": "Feature", "properties": {"norad_id": 36605, "name": "TANDEM-X", "group": "resource", "lat": -27.111786298590566, "lon": -4.975478068810812, "alt_km": 514.5896454879221, "timestamp": "2025-12-11T18:59:45.723051+00:00", "meta": {"OBJECT_NAME": "TANDEM-X", "OBJECT_ID": "2010-030A", "EPOCH": "2025-12-10T13:04:49.497312", "MEAN_MOTION": 15.19152954, "ECCENTRICITY": 0.0001855, "INCLINATION": 97.4451, "RA_OF_ASC_NODE": 349.9572, "ARG_OF_PERICENTER": 84.2987, "MEAN_ANOMALY": 275.8459, "EPHEMERIS_TYPE": 0, "CLASSIFICATION_TYPE": "U", "NORAD_CAT_ID": 36605, "ELEMENT_SET_NO": 999, "REV_AT_EPOCH": 85800, "BSTAR": 0.00014449, "MEAN_MOTION_DOT": 2.969e-05, "MEAN_MOTION_DDOT": 0}, "tle": {"line1": "1 36605U 10030A   25344.54501733  .00002969  00000+0  14449-3 0  9990", "line2": "2 36605  97.4451 349.9572 0001855  84.2987 275.8459 15.19152954858001"}}, "geometry": {"type": "Point", "coordinates": [-4.975478068810812, -27.111786298590566]}}, {"type": "Feature", "properties": {"norad_id": 36795, "name": "CARTOSAT-2B", "group": "resource", "lat": 27.144040503603712, "lon": -141.12548923243287, "alt_km": 629.3885567188345, "timestamp": "2025-12-11T18:59:45.723063+00:00", "meta": {"OBJECT_NAME": "CARTOSAT-2B", "OBJECT_ID": "2010-035A", "EPOCH": "2025-12-11T06:56:32.788032", "MEAN_MOTION": 14.78785243, "ECCENTRICITY": 0.00129153, "INCLINATION": 97.785, "RA_OF_ASC_NODE": 34.3665, "ARG_OF_PERICENTER": 81.5625, "MEAN_ANOMALY": 278.705, "EPHEMERIS_TYPE": 0, "CLASSIFICATION_TYPE": "U", "NORAD_CAT_ID": 36795, "ELEMENT_SET_NO": 999, "REV_AT_EPOCH": 83208, "BSTAR": 0.00013815019, "MEAN_MOTION_DOT": 9.66e-06, "MEAN_MOTION_DDOT": 0}, "tle": {"line1": "1 36795U 10035A   25345.28926838  .00000966  00000+0  13815-3 0  9995", "line2": "2 36795  97.7850  34.3665 0012915  81.5625 278.7050 14.78785243832089"}}, "geometry": {"type": "Point", "coordinates": [-141.12548923243287, 27.144040503603712]}}, {"type": "Feature", "properties": {"norad_id": 36834, "name": "YAOGAN-10", "group": "resource", "lat": -32.13313178236314, "lon": -179.39357426095017, "alt_km": 621.637891167451, "timestamp": "2025-12-11T18:59:45.723073+00:00", "meta": {"OBJECT_NAME": "YAOGAN-10", "OBJECT_ID": "2010-038A", "EPOCH": "2025-12-11T06:59:50.483328", "MEAN_MOTION": 14.84597537, "ECCENTRICITY": 0.00014944, "INCLINATION": 97.9142, "RA_OF_ASC_NODE": 5.1228, "ARG_OF_PERICENTER": 83.4347, "MEAN_ANOMALY": 338.5738, "EPHEMERIS_TYPE": 0, "CLASSIFICATION_TYPE": "U", "NORAD_CAT_ID": 36834, "ELEMENT_SET_NO": 999, "REV_AT_EPOCH": 82932, "BSTAR": 0.0003656173, "MEAN_MOTION_DOT": 3.035e-05, "MEAN_MOTION_DDOT": 0}, "tle": {"line1": "1 36834U 10038A   25345.29155652  .00003035  00000+0  36562-3 0  9995", "line2": "2 36834  97.9142   5.1228 0001494  83.4347 338.5738 14.84597537829327"}}, "geometry": {"type": "Point", "coordinates": [-179.39357426095017, -32.13313178236314]}}]}